[{"OBJECT_NAME":"GNOMES-5","OBJECT_ID":"2024-149DL","EPOCH":"2026-03-09T22:53:01.372704","MEAN_MOTION":15.00280005,"ECCENTRICITY":0.00076217,"INCLINATION":97.6857,"RA_OF_ASC_NODE":148.0235,"ARG_OF_PERICENTER":89.6268,"MEAN_ANOMALY":270.5829,"EPHEMERIS_TYPE":0,"CLASSIFICATION_TYPE":"U","NORAD_CAT_ID":60574,"ELEMENT_SET_NO":999,"REV_AT_EPOCH":8527,"BSTAR":0.00047414566,"MEAN_MOTION_DOT":5.885e-5,"MEAN_MOTION_DDOT":0},{"OBJECT_NAME":"STARLINK-35966","OBJECT_ID":"2025-280A","EPOCH":"2026-03-09T23:21:18.593568","MEAN_MOTION":14.98332696,"ECCENTRICITY":0.00028489,"INCLINATION":70.0017,"RA_OF_ASC_NODE":333.9298,"ARG_OF_PERICENTER":271.3712,"MEAN_ANOMALY":88.7121,"EPHEMERIS_TYPE":0,"CLASSIFICATION_TYPE":"U","NORAD_CAT_ID":66821,"ELEMENT_SET_NO":999,"REV_AT_EPOCH":1611,"BSTAR":0.00025589932,"MEAN_MOTION_DOT":2.962e-5,"MEAN_MOTION_DDOT":0}]
